IRIDIUM 57              
1 25273U 98019B   24300.90426478  .00001465  00000+0  50287-3 0  9995
2 25273  86.3960 242.9127 0002365  85.6264 274.5202 14.35514094391312
IRIDIUM 63              
1 25286U 98021B   24300.94485499  .00001204  00000+0  40705-3 0  9999
2 25286  86.4043 179.8859 0001991  78.0542 282.0878 14.36123363390361
IRIDIUM 69              
1 25319U 98026A   24300.97125296  .00001825  00000+0  56863-3 0  9991
2 25319  86.4044 193.8442 0004548  76.1380 284.0325 14.40438479389485
IRIDIUM 71              
1 25320U 98026B   24300.94375787  .00001320  00000+0  40745-3 0  9994
2 25320  86.4041 188.5973 0003844 109.1005 251.0611 14.40700293390001
IRIDIUM 73              
1 25344U 98032C   24300.83232371  .00001714  00000+0  42829-3 0  9998
2 25344  86.4421 145.8919 0002727  79.9515 280.1998 14.51037121396714
IRIDIUM 82              
1 25467U 98051A   24300.86660474  .00040758  00000+0  17251-2 0  9998
2 25467  86.3758 222.9862 0117503  93.5429 267.9260 15.16847498388401
